BEIJING 1               
1 28890U 05043A   22351.13499465  .00000445  00000+0  98985-4 0  9998
2 28890  98.1388 110.4182 0014340 326.4222  33.6068 14.61562133913827
HJ-1A                   
1 33320U 08041A   22351.08550351  .00000574  00000+0  86012-4 0  9990
2 33320  97.6605  15.4267 0021139   1.9441 358.1853 14.78018920769360
HJ-1B                   
1 33321U 08041B   22351.10327046  .00001224  00000+0  17444-3 0  9992
2 33321  97.6758  19.3752 0034712  18.5117 341.7361 14.78089324769365
YAOGAN 4                
1 33446U 08061A   22351.09692002  .00000797  00000+0  11831-3 0  9995
2 33446  97.8357 285.8350 0014704 262.8703  97.0836 14.77623921756560
DEIMOS-1                
1 35681U 09041A   22351.10134897  .00000537  00000+0  92451-4 0  9992
2 35681  97.6924 192.6239 0002135  38.8386 321.2973 14.72202447718647
UK-DMC 2                
1 35683U 09041C   22350.99877700  .00000801  00000+0  13613-3 0  9993
2 35683  97.7093 154.3805 0001768  74.5460 285.5938 14.71636031718352
RISAT 1                 
1 38248U 12017A   22350.99204961  .00005241  00000+0  29841-3 0  9996
2 38248  97.5495   0.4592 0004108  14.4508 345.6840 15.13255706586432
DMC3-FM1                
1 40715U 15032A   22351.00901897  .00000718  00000+0  96250-4 0  9996
2 40715  97.8218 233.9911 0004657 291.9302  68.1425 14.82317117400331
DMC3-FM2                
1 40716U 15032B   22351.03241729  .00000730  00000+0  97846-4 0  9997
2 40716  97.8267 234.7507 0006619 293.2768  66.7749 14.82310542400346
DMC3-FM3                
1 40717U 15032C   22351.05283687  .00000730  00000+0  97854-4 0  9998
2 40717  97.8302 235.7641 0008104 289.2423  70.7920 14.82306977400344
